STARLINK-31670          
1 59490U 24071G   26068.16467411  .00001330  00000+0  57863-4 0  9992
2 59490  42.9994 354.1263 0000412 293.6576  66.4232 15.27554228107995
FLOCK 4G-23             
1 62647U 25009AQ  26068.71663397  .00012440  00000+0  46816-3 0  9993
2 62647  97.3979 150.9478 0000905   7.2707 352.8545 15.27262579 63728
